{
"type": "FeatureCollection",
"name": "synthetic_wards",
"crs": { "type": "name", "properties": { "name": "urn:ogc:def:crs:OGC:1.3:CRS84" } },
"features": [
{ "type": "Feature", "properties": { "id": 1, "name": "Dadar West (DEMO)", "ward_code": "MUM-GN-01", "population": 450000, "area_sq_km": 9.07, "elevation_m": 4.2, "drainage_quality": 0.45, "data_source_type": "SYNTHETIC_DEMO_DATA" }, "geometry": { "type": "Polygon", "coordinates": [ [ [ 72.83, 19.01 ], [ 72.85, 19.01 ], [ 72.85, 19.03 ], [ 72.83, 19.03 ], [ 72.83, 19.01 ] ] ] } },
{ "type": "Feature", "properties": { "id": 2, "name": "Kurla West (DEMO)", "ward_code": "MUM-L-02", "population": 900000, "area_sq_km": 15.88, "elevation_m": 2.8, "drainage_quality": 0.25, "data_source_type": "SYNTHETIC_DEMO_DATA" }, "geometry": { "type": "Polygon", "coordinates": [ [ [ 72.87, 19.06 ], [ 72.89, 19.06 ], [ 72.89, 19.08 ], [ 72.87, 19.08 ], [ 72.87, 19.06 ] ] ] } },
{ "type": "Feature", "properties": { "id": 3, "name": "Andheri East (DEMO)", "ward_code": "MUM-K-03", "population": 850000, "area_sq_km": 24.5, "elevation_m": 18.5, "drainage_quality": 0.7, "data_source_type": "SYNTHETIC_DEMO_DATA" }, "geometry": { "type": "Polygon", "coordinates": [ [ [ 72.84, 19.11 ], [ 72.87, 19.11 ], [ 72.87, 19.14 ], [ 72.84, 19.14 ], [ 72.84, 19.11 ] ] ] } },
{ "type": "Feature", "properties": { "id": 4, "name": "Sion Circle (DEMO)", "ward_code": "MUM-FN-04", "population": 380000, "area_sq_km": 7.12, "elevation_m": 2.1, "drainage_quality": 0.3, "data_source_type": "SYNTHETIC_DEMO_DATA" }, "geometry": { "type": "Polygon", "coordinates": [ [ [ 72.85, 19.03 ], [ 72.87, 19.03 ], [ 72.87, 19.05 ], [ 72.85, 19.05 ], [ 72.85, 19.03 ] ] ] } }
]
}
