{
  "type": "FeatureCollection",
  "features": [
    {
      "type": "Feature",
      "id": 24456,
      "geometry": {
        "type": "Polygon",
        "coordinates": [
          [
            [
              78.97578723739343,
              11.738
            ],
            [
              78.97473774643767,
              11.743165813071883
            ],
            [
              78.97174904905472,
              11.747545177931784
            ],
            [
              78.96727614732855,
              11.750471375978824
            ],
            [
              78.962,
              11.751498920086393
            ],
            [
              78.95672385267146,
              11.750471375978824
            ],
            [
              78.95225095094528,
              11.747545177931784
            ],
            [
              78.94926225356234,
              11.743165813071883
            ],
            [
              78.94821276260657,
              11.738
            ],
            [
              78.94926225356234,
              11.732834186928116
            ],
            [
              78.95225095094528,
              11.728454822068215
            ],
            [
              78.95672385267146,
              11.725528624021175
            ],
            [
              78.962,
              11.724501079913606
            ],
            [
              78.96727614732855,
              11.725528624021175
            ],
            [
              78.97174904905472,
              11.728454822068215
            ],
            [
              78.97473774643767,
              11.732834186928116
            ],
            [
              78.97578723739343,
              11.738
            ]
          ]
        ]
      },
      "properties": {
        "id": 24456,
        "name": "Ulundurpet",
        "ward_code": "OSM-3456",
        "city": "Kallakurichi",
        "district": "Kallakurichi",
        "state": "Tamil Nadu",
        "administrative_type": "Urban",
        "local_body": "Kallakurichi Local Body",
        "locality": "Ulundurpet",
        "population": 25000,
        "area_sq_km": 7.07,
        "risk_level": "LOW",
        "coordinates": [
          11.738,
          78.962
        ],
        "data_source_type": "OpenStreetMap / Overpass API",
        "data_status": "Verified Public Data"
      }
    }
  ]
}